{"type": "FeatureCollection", "features": [ {"type": "Feature", "properties": {"norad_id": 31566, "name": "FENGYUN 1C DEB", "group": "fengyun-1c-debris", "lat": -29.42105333583375, "lon": -128.26749223172234, "alt_km": 778.7523238800959, "timestamp": "2025-12-23T11:34:48.445954+00:00", "meta": {"OBJECT_NAME": "FENGYUN 1C DEB", "OBJECT_ID": "1999-025BZH", "EPOCH": "2025-12-22T03:07:18.840288", "MEAN_MOTION": 14.37496041, "ECCENTRICITY": 0.00231907, "INCLINATION": 98.9486, "RA_OF_ASC_NODE": 55.4239, "ARG_OF_PERICENTER": 325.6342, "MEAN_ANOMALY": 89.4799, "EPHEMERIS_TYPE": 0, "CLASSIFICATION_TYPE": "U", "NORAD_CAT_ID": 31566, "ELEMENT_SET_NO": 999, "REV_AT_EPOCH": 96526, "BSTAR": 0.0020123355, "MEAN_MOTION_DOT": 6.001e-05, "MEAN_MOTION_DDOT": 0}, "tle": {"line1": "1 31566U 99025BZH 25356.13007917  .00006001  00000+0  20123-2 0  9991", "line2": "2 31566  98.9486  55.4239 0023190 325.6342  89.4799 14.37496041965268"}}, "geometry": {"type": "Point", "coordinates": [-128.26749223172234, -29.42105333583375]}}, {"type": "Feature", "properties": {"norad_id": 31567, "name": "FENGYUN 1C DEB", "group": "fengyun-1c-debris", "lat": -38.13529004926095, "lon": 37.817567810882075, "alt_km": 862.4129026232504, "timestamp": "2025-12-23T11:34:48.445963+00:00", "meta": {"OBJECT_NAME": "FENGYUN 1C DEB", "OBJECT_ID": "1999-025BZJ", "EPOCH": "2025-12-19T11:42:14.577408", "MEAN_MOTION": 13.92929453, "ECCENTRICITY": 0.0186711, "INCLINATION": 102.3178, "RA_OF_ASC_NODE": 222.3955, "ARG_OF_PERICENTER": 292.5533, "MEAN_ANOMALY": 65.5952, "EPHEMERIS_TYPE": 0, "CLASSIFICATION_TYPE": "U", "NORAD_CAT_ID": 31567, "ELEMENT_SET_NO": 999, "REV_AT_EPOCH": 67503, "BSTAR": 0.0021757, "MEAN_MOTION_DOT": 3.189e-05, "MEAN_MOTION_DDOT": 0}, "tle": {"line1": "1 31567U 99025BZJ 25353.48766872  .00003189  00000+0  21757-2 0  9997", "line2": "2 31567 102.3178 222.3955 0186711 292.5533  65.5952 13.92929453675037"}}, "geometry": {"type": "Point", "coordinates": [37.817567810882075, -38.13529004926095]}}, {"type": "Feature", "properties": {"norad_id": 31568, "name": "FENGYUN 1C DEB", "group": "fengyun-1c-debris", "lat": 74.67092005997783, "lon": -168.1443253444537, "alt_km": 786.9629778353456, "timestamp": "2025-12-23T11:34:48.445972+00:00", "meta": {"OBJECT_NAME": "FENGYUN 1C DEB", "OBJECT_ID": "1999-025BZK", "EPOCH": "2025-12-20T21:36:33.612192", "MEAN_MOTION": 14.03410651, "ECCENTRICITY": 0.0123573, "INCLINATION": 102.0491, "RA_OF_ASC_NODE": 239.6323, "ARG_OF_PERICENTER": 99.1566, "MEAN_ANOMALY": 262.3592, "EPHEMERIS_TYPE": 0, "CLASSIFICATION_TYPE": "U", "NORAD_CAT_ID": 31568, "ELEMENT_SET_NO": 999, "REV_AT_EPOCH": 94694, "BSTAR": 0.0022372, "MEAN_MOTION_DOT": 3.678e-05, "MEAN_MOTION_DDOT": 0}, "tle": {"line1": "1 31568U 99025BZK 25354.90038903  .00003678  00000+0  22372-2 0  9990", "line2": "2 31568 102.0491 239.6323 0123573  99.1566 262.3592 14.03410651946943"}}, "geometry": {"type": "Point", "coordinates": [-168.1443253444537, 74.67092005997783]}}, {"type": "Feature", "properties": {"norad_id": 31569, "name": "FENGYUN 1C DEB", "group": "fengyun-1c-debris", "lat": -38.098509885424065, "lon": 168.73427206668975, "alt_km": 795.0338607975737, "timestamp": "2025-12-23T11:34:48.445981+00:00", "meta": {"OBJECT_NAME": "FENGYUN 1C DEB", "OBJECT_ID": "1999-025BZL", "EPOCH": "2025-12-22T22:43:07.091904", "MEAN_MOTION": 13.95593078, "ECCENTRICITY": 0.01745255, "INCLINATION": 102.6155, "RA_OF_ASC_NODE": 157.8903, "ARG_OF_PERICENTER": 341.5064, "MEAN_ANOMALY": 168.8864, "EPHEMERIS_TYPE": 0, "CLASSIFICATION_TYPE": "U", "NORAD_CAT_ID": 31569, "ELEMENT_SET_NO": 999, "REV_AT_EPOCH": 93821, "BSTAR": 0.0022235094, "MEAN_MOTION_DOT": 3.364e-05, "MEAN_MOTION_DDOT": 0}, "tle": {"line1": "1 31569U 99025BZL 25356.94660986  .00003364  00000+0  22235-2 0  9999", "line2": "2 31569 102.6155 157.8903 0174525 341.5064 168.8864 13.95593078938210"}}, "geometry": {"type": "Point", "coordinates": [168.73427206668975, -38.098509885424065]}}, {"type": "Feature", "properties": {"norad_id": 31570, "name": "FENGYUN 1C DEB", "group": "fengyun-1c-debris", "lat": -77.02852108285383, "lon": 116.5536133664204, "alt_km": 785.5094474257367, "timestamp": "2025-12-23T11:34:48.445990+00:00", "meta": {"OBJECT_NAME": "FENGYUN 1C DEB", "OBJECT_ID": "1999-025BZM", "EPOCH": "2025-12-19T23:45:35.930016", "MEAN_MOTION": 14.25330142, "ECCENTRICITY": 0.01547682, "INCLINATION": 102.5663, "RA_OF_ASC_NODE": 36.0247, "ARG_OF_PERICENTER": 206.1842, "MEAN_ANOMALY": 153.1437, "EPHEMERIS_TYPE": 0, "CLASSIFICATION_TYPE": "U", "NORAD_CAT_ID": 31570, "ELEMENT_SET_NO": 999, "REV_AT_EPOCH": 63470, "BSTAR": 0.0019503601, "MEAN_MOTION_DOT": 5.132e-05, "MEAN_MOTION_DDOT": 0}, "tle": {"line1": "1 31570U 99025BZM 25353.98999919  .00005132  00000+0  19504-2 0  9993", "line2": "2 31570 102.5663  36.0247 0154768 206.1842 153.1437 14.25330142634706"}}, "geometry": {"type": "Point", "coordinates": [116.5536133664204, -77.02852108285383]}}, {"type": "Feature", "properties": {"norad_id": 31608, "name": "FENGYUN 1C DEB", "group": "fengyun-1c-debris", "lat": -3.3465046915178296, "lon": -64.29834671356768, "alt_km": 715.7848346734836, "timestamp": "2025-12-23T11:34:48.445999+00:00", "meta": {"OBJECT_NAME": "FENGYUN 1C DEB", "OBJECT_ID": "1999-025BZN", "EPOCH": "2025-12-17T14:09:29.850912", "MEAN_MOTION": 14.85908283, "ECCENTRICITY": 0.01457059, "INCLINATION": 98.3797, "RA_OF_ASC_NODE": 109.9897, "ARG_OF_PERICENTER": 22.0076, "MEAN_ANOMALY": 338.7309, "EPHEMERIS_TYPE": 0, "CLASSIFICATION_TYPE": "U", "NORAD_CAT_ID": 31608, "ELEMENT_SET_NO": 999, "REV_AT_EPOCH": 98705, "BSTAR": 0.00045964647, "MEAN_MOTION_DOT": 4.79e-05, "MEAN_MOTION_DDOT": 0}, "tle": {"line1": "1 31608U 99025BZN 25351.58992883  .00004790  00000+0  45965-3 0  9992", "line2": "2 31608  98.3797 109.9897 0145705  22.0076 338.7309 14.85908283987055"}}, "geometry": {"type": "Point", "coordinates": [-64.29834671356768, -3.3465046915178296]}}, {"type": "Feature", "properties": {"norad_id": 31609, "name": "FENGYUN 1C DEB", "group": "fengyun-1c-debris", "lat": -7.8273845660580355, "lon": -154.90815005195566, "alt_km": 856.9748345642956, "timestamp": "2025-12-23T11:34:48.446008+00:00", "meta": {"OBJECT_NAME": "FENGYUN 1C DEB", "OBJECT_ID": "1999-025BZP", "EPOCH": "2025-12-22T21:42:13.279104", "MEAN_MOTION": 14.15844126, "ECCENTRICITY": 0.00947144, "INCLINATION": 99.2139, "RA_OF_ASC_NODE": 25.7728, "ARG_OF_PERICENTER": 291.5289, "MEAN_ANOMALY": 191.9396, "EPHEMERIS_TYPE": 0, "CLASSIFICATION_TYPE": "U", "NORAD_CAT_ID": 31609, "ELEMENT_SET_NO": 999, "REV_AT_EPOCH": 66228, "BSTAR": 0.0023909878, "MEAN_MOTION_DOT": 4.866e-05, "MEAN_MOTION_DDOT": 0}, "tle": {"line1": "1 31609U 99025BZP 25356.90432036  .00004866  00000+0  23910-2 0  9992", "line2": "2 31609  99.2139  25.7728 0094714 291.5289 191.9396 14.15844126662284"}}, "geometry": {"type": "Point", "coordinates": [-154.90815005195566, -7.8273845660580355]}}, {"type": "Feature", "properties": {"norad_id": 31612, "name": "FENGYUN 1C DEB", "group": "fengyun-1c-debris", "lat": -79.27842305112245, "lon": -7.2563075632177805, "alt_km": 368.3128694239185, "timestamp": "2025-12-23T11:34:48.446017+00:00", "meta": {"OBJECT_NAME": "FENGYUN 1C DEB", "OBJECT_ID": "1999-025BZS", "EPOCH": "2025-12-19T05:46:17.720832", "MEAN_MOTION": 15.73665045, "ECCENTRICITY": 0.0031005, "INCLINATION": 100.334, "RA_OF_ASC_NODE": 271.9263, "ARG_OF_PERICENTER": 82.9764, "MEAN_ANOMALY": 277.5014, "EPHEMERIS_TYPE": 0, "CLASSIFICATION_TYPE": "U", "NORAD_CAT_ID": 31612, "ELEMENT_SET_NO": 999, "REV_AT_EPOCH": 107, "BSTAR": 0.0015977, "MEAN_MOTION_DOT": 0.00236106, "MEAN_MOTION_DDOT": 0}, "tle": {"line1": "1 31612U 99025BZS 25353.24048288  .00236106  00000+0  15977-2 0  9990", "line2": "2 31612 100.3340 271.9263 0031005  82.9764 277.5014 15.73665045  1077"}}, "geometry": {"type": "Point", "coordinates": [-7.2563075632177805, -79.27842305112245]}}, {"type": "Feature", "properties": {"norad_id": 31613, "name": "FENGYUN 1C DEB", "group": "fengyun-1c-debris", "lat": -45.17174191871247, "lon": -168.3150543220187, "alt_km": 1162.8703813016873, "timestamp": "2025-12-23T11:34:48.446026+00:00", "meta": {"OBJECT_NAME": "FENGYUN 1C DEB", "OBJECT_ID": "1999-025BZT", "EPOCH": "2025-12-20T06:18:56.611008", "MEAN_MOTION": 13.63462471, "ECCENTRICITY": 0.03426757, "INCLINATION": 98.4235, "RA_OF_ASC_NODE": 180.3179, "ARG_OF_PERICENTER": 86.1054, "MEAN_ANOMALY": 277.919, "EPHEMERIS_TYPE": 0, "CLASSIFICATION_TYPE": "U", "NORAD_CAT_ID": 31613, "ELEMENT_SET_NO": 999, "REV_AT_EPOCH": 91864, "BSTAR": 0.00096915007, "MEAN_MOTION_DOT": 1.104e-05, "MEAN_MOTION_DDOT": 0}, "tle": {"line1": "1 31613U 99025BZT 25354.26315522  .00001104  00000+0  96915-3 0  9992", "line2": "2 31613  98.4235 180.3179 0342675  86.1054 277.9190 13.63462471918647"}}, "geometry": {"type": "Point", "coordinates": [-168.3150543220187, -45.17174191871247]}}, {"type": "Feature", "properties": {"norad_id": 31614, "name": "FENGYUN 1C DEB", "group": "fengyun-1c-debris", "lat": 9.121156545472898, "lon": 86.32365098035959, "alt_km": 583.670474437241, "timestamp": "2025-12-23T11:34:48.446035+00:00", "meta": {"OBJECT_NAME": "FENGYUN 1C DEB", "OBJECT_ID": "1999-025BZU", "EPOCH": "2025-12-22T17:26:32.856288", "MEAN_MOTION": 14.99048968, "ECCENTRICITY": 0.00185716, "INCLINATION": 98.9737, "RA_OF_ASC_NODE": 264.0006, "ARG_OF_PERICENTER": 338.9203, "MEAN_ANOMALY": 75.6589, "EPHEMERIS_TYPE": 0, "CLASSIFICATION_TYPE": "U", "NORAD_CAT_ID": 31614, "ELEMENT_SET_NO": 999, "REV_AT_EPOCH": 96579, "BSTAR": 0.0073290513, "MEAN_MOTION_DOT": 0.00090262, "MEAN_MOTION_DDOT": 0}, "tle": {"line1": "1 31614U 99025BZU 25356.72676917  .00090262  00000+0  73291-2 0  9998", "line2": "2 31614  98.9737 264.0006 0018571 338.9203  75.6589 14.99048968965792"}}, "geometry": {"type": "Point", "coordinates": [86.32365098035959, 9.121156545472898]}}]}